[
    {
        "Altitude(m)": 607895.8072480018,
        "Argument of Periapsis(deg)": 0.0,
        "Eccentricity": 0.0,
        "Inclination(deg)": 60.0,
        "Latitude(deg)": 40.99831213512529,
        "Longitude(deg)": -154.9112640459425,
        "Mean Anomaly(deg)": 130.90909999999997,
        "RAAN(deg)": 155.0,
        "Satellite Name": "Test1 690",
        "Satellite Number": 690,
        "Semi-Major Axis(m)": 6980739.136638005,
        "Time(s)": 0
    },
    {
        "Altitude(m)": 607795.1197825238,
        "Argument of Periapsis(deg)": 0.00010418945913296404,
        "Eccentricity": 0.0,
        "Inclination(deg)": 60.0,
        "Latitude(deg)": 40.530635484808286,
        "Longitude(deg)": -154.41467189565716,
        "Mean Anomaly(deg)": 131.5292061454618,
        "RAAN(deg)": 154.99957995086027,
        "Satellite Name": "Test1 690",
        "Satellite Number": 690,
        "Semi-Major Axis(m)": 6980739.136638005,
        "Time(s)": 10
    }
]